STARLINK-30612          
1 58106U 23161K   26068.50022727  .00000050  00000+0  13796-4 0  9994
2 58106  53.1594 153.3961 0000947  86.5768 273.5341 15.30186035134574
TEVEL2-7                
1 63238U 25052AE  26068.66113295  .00019244  00000+0  69668-3 0  9998
2 63238  97.4054 324.3041 0008105 124.6830 235.5175 15.28414096 54803
